STARLINK-36481          
1 67307U 26002C   26196.68932195  .00009776  00000+0  36421-3 0  9997
2 67307  42.9969 322.5036 0001717  28.2376 331.8569 15.27588451 30654
STARLINK-36449          
1 67308U 26002D   26196.68160450  .00011664  00000+0  43266-3 0  9999
2 67308  43.0023 322.4367 0001605 270.6982  89.3685 15.27584501 30719
STARLINK-36482          
1 67309U 26002E   26196.41620117  .00008534  00000+0  31922-3 0  9990
2 67309  43.0059 323.8864 0003047 289.6398  70.4125 15.27584381 30614
STARLINK-36491          
1 67310U 26002F   26196.43804932  .00012416  00000+0  45997-3 0  9994
2 67310  43.0004 324.0545 0001554 268.2647  91.8027 15.27579589 30618
STARLINK-36495          
1 67311U 26002G   26196.40592442  .00009010  00000+0  33654-3 0  9995
2 67311  43.0037 323.8062 0001969 284.3663  75.6970 15.27581708 30773
STARLINK-36485          
1 67312U 26002H   26196.65333073  .00008270  00000+0  30966-3 0  9996
2 67312  43.0003 322.2188 0000817 253.9393 106.1369 15.27584217 30659
STARLINK-36445          
1 67313U 26002J   26196.38037105  .00008390  00000+0  31406-3 0  9997
2 67313  43.0068 324.4844 0004093 293.6338  66.4084 15.27577803 30761
STARLINK-36476          
1 67314U 26002K   26196.35852819  .00009169  00000+0  34234-3 0  9999
2 67314  43.0038 324.3123 0002382 290.7900  69.2696 15.27577186 30595
STARLINK-36463          
1 67315U 26002L   26196.33796513  .00008716  00000+0  32583-3 0  9998
2 67315  43.0063 324.1570 0002002 282.3497  77.7131 15.27583528 30668
STARLINK-36461          
1 67316U 26002M   26196.66104152  .00007113  00000+0  26774-3 0  9992
2 67316  43.0011 322.2767 0001450 271.5044  88.5641 15.27579442 30816
STARLINK-36450          
1 67317U 26002N   26196.77397033  .00017154  00000+0  63121-3 0  9990
2 67317  43.0016 322.2716 0001990 280.8345  79.2283 15.27591281 30827
STARLINK-36498          
1 67318U 26002P   26196.69059413  .00014057  00000+0  51919-3 0  9990
2 67318  43.0017 322.5058 0002160 278.4818  81.5788 15.27590070 30718
STARLINK-36470          
1 67319U 26002Q   26196.36750924  .00014797  00000+0  54601-3 0  9992
2 67319  43.0020 324.3825 0002293 153.3871 206.7099 15.27588123 30668
STARLINK-36500          
1 67320U 26002R   26196.71244364  .00009632  00000+0  35905-3 0  9997
2 67320  43.0032 322.6700 0001404 269.9396  90.1295 15.27581909 30719
STARLINK-36462          
1 67321U 26002S   26196.43933198  .00011230  00000+0  41708-3 0  9992
2 67321  43.0023 324.0618 0001925 281.2859  78.7776 15.27573847 30610
STARLINK-36434          
1 67322U 26002T   26196.37779785  .00008555  00000+0  32004-3 0  9991
2 67322  42.9992 324.4569 0001942 273.1772  86.8857 15.27579646 30608
STARLINK-36497          
1 67323U 26002U   26196.68288537  .00010284  00000+0  38265-3 0  9993
2 67323  43.0026 322.4438 0001819 285.4628  74.6022 15.27584889 30717
STARLINK-36471          
1 67324U 26002V   26196.66874971  .00009328  00000+0  34802-3 0  9995
2 67324  43.0030 322.3345 0001492 274.0160  86.0521 15.27586118 30652
STARLINK-36473          
1 67325U 26002W   26196.41105898  .00008119  00000+0  30423-3 0  9996
2 67325  43.0021 323.8404 0001420 255.9632 104.1062 15.27581568 30777
STARLINK-36430          
1 67326U 26002X   26196.65076066  .00012878  00000+0  47653-3 0  9997
2 67326  43.0021 322.1963 0001465 271.3793  88.6890 15.27589711 30817
STARLINK-36501          
1 67327U 26002Y   26196.65718513  .00011704  00000+0  43405-3 0  9996
2 67327  43.0009 322.2440 0001211 265.1510  94.9204 15.27587596 30652
STARLINK-36489          
1 67328U 26002Z   26196.36880840  .00011794  00000+0  43725-3 0  9992
2 67328  42.9957 324.3898 0000375  50.9122 309.1763 15.27592897 30765
STARLINK-36496          
1 67329U 26002AA  26196.41877080  .00011948  00000+0  44296-3 0  9996
2 67329  43.0038 323.8995 0001973 280.7628  79.3001 15.27583590 30591
STARLINK-36483          
1 67330U 26002AB  26196.37522249  .00007466  00000+0  28047-3 0  9993
2 67330  42.9998 324.4358 0001282 271.4978  88.5727 15.27591635 30769
STARLINK-36494          
1 67331U 26002AC  26196.68416914  .00009199  00000+0  34326-3 0  9991
2 67331  43.0032 322.4508 0001438 260.7969  99.2720 15.27591148 30817
STARLINK-36492          
1 67332U 26002AD  26196.77525187  .00014818  00000+0  54653-3 0  9994
2 67332  43.0026 322.2758 0002431 274.0770  85.9804 15.27602756 30822
STARLINK-36427          
1 67333U 26002AE  26196.68674545  .00014813  00000+0  54666-3 0  9997
2 67333  42.9998 322.4608 0001125 290.7079  69.3652 15.27585116 30716
STARLINK-35343          
1 67334U 26003A   26197.11052111  .00010528  00000+0  39138-3 0  9993
2 67334  42.9980 221.8661 0000882 268.5248  91.5502 15.27594051 28467
STARLINK-36486          
1 67335U 26003B   26197.15406477  .00011779  00000+0  43662-3 0  9992
2 67335  42.9914 221.3186 0001224 206.6648 153.4141 15.27597848 28475
STARLINK-36480          
1 67336U 26003C   26196.13743303  .00008906  00000+0  33265-3 0  9998
2 67336  43.0035 227.4698 0002295 300.2797  59.7827 15.27591270 28317
