OBJECT_NAME,OBJECT_ID,EPOCH,MEAN_MOTION,ECCENTRICITY,INCLINATION,RA_OF_ASC_NODE,ARG_OF_PERICENTER,MEAN_ANOMALY,EPHEMERIS_TYPE,CLASSIFICATION_TYPE,NORAD_CAT_ID,ELEMENT_SET_NO,REV_AT_EPOCH,BSTAR,MEAN_MOTION_DOT,MEAN_MOTION_DDOT
STARLINK-36481,2026-002C,2026-07-15T16:32:37.416480,15.27588451,.00017179,42.9969,322.5036,28.2376,331.8569,0,U,67307,999,3065,.36421354E-3,.9776E-4,0
STARLINK-36449,2026-002D,2026-07-15T16:21:30.628800,15.27584501,.00016054,43.0023,322.4367,270.6982,89.3685,0,U,67308,999,3071,.4326642E-3,.11664E-3,0
STARLINK-36482,2026-002E,2026-07-15T09:59:19.781088,15.27584381,.00030476,43.0059,323.8864,289.6398,70.4125,0,U,67309,999,3061,.31922151E-3,.8534E-4,0
STARLINK-36491,2026-002F,2026-07-15T10:30:47.461248,15.27579589,.00015545,43.0004,324.0545,268.2647,91.8027,0,U,67310,999,3061,.45996604E-3,.12416E-3,0
STARLINK-36495,2026-002G,2026-07-15T09:44:31.869888,15.27581708,.00019692,43.0037,323.8062,284.3663,75.6970,0,U,67311,999,3077,.33654006E-3,.901E-4,0
STARLINK-36485,2026-002H,2026-07-15T15:40:47.775072,15.27584217,.00008177,43.0003,322.2188,253.9393,106.1369,0,U,67312,999,3065,.30966036E-3,.827E-4,0
STARLINK-36445,2026-002J,2026-07-15T09:07:44.058720,15.27577803,.00040936,43.0068,324.4844,293.6338,66.4084,0,U,67313,999,3076,.31405856E-3,.839E-4,0
STARLINK-36476,2026-002K,2026-07-15T08:36:16.835616,15.27577186,.00023828,43.0038,324.3123,290.7900,69.2696,0,U,67314,999,3059,.34233676E-3,.9169E-4,0
STARLINK-36463,2026-002L,2026-07-15T08:06:40.187232,15.27583528,.00020022,43.0063,324.1570,282.3497,77.7131,0,U,67315,999,3066,.32583412E-3,.8716E-4,0
STARLINK-36461,2026-002M,2026-07-15T15:51:53.987328,15.27579442,.00014506,43.0011,322.2767,271.5044,88.5641,0,U,67316,999,3081,.26774322E-3,.7113E-4,0
STARLINK-36450,2026-002N,2026-07-15T18:34:31.036512,15.27591281,.00019905,43.0016,322.2716,280.8345,79.2283,0,U,67317,999,3082,.63120549E-3,.17154E-3,0
STARLINK-36498,2026-002P,2026-07-15T16:34:27.332832,15.27590070,.00021605,43.0017,322.5058,278.4818,81.5788,0,U,67318,999,3071,.51918532E-3,.14057E-3,0
STARLINK-36470,2026-002Q,2026-07-15T08:49:12.798336,15.27588123,.00022938,43.0020,324.3825,153.3871,206.7099,0,U,67319,999,3066,.54601476E-3,.14797E-3,0
STARLINK-36500,2026-002R,2026-07-15T17:05:55.130496,15.27581909,.00014043,43.0032,322.6700,269.9396,90.1295,0,U,67320,999,3071,.35904666E-3,.9632E-4,0
STARLINK-36462,2026-002S,2026-07-15T10:32:38.283072,15.27573847,.00019253,43.0023,324.0618,281.2859,78.7776,0,U,67321,999,3061,.41708343E-3,.1123E-3,0
STARLINK-36434,2026-002T,2026-07-15T09:04:01.734240,15.27579646,.00019427,42.9992,324.4569,273.1772,86.8857,0,U,67322,999,3060,.32003823E-3,.8555E-4,0
STARLINK-36497,2026-002U,2026-07-15T16:23:21.295968,15.27584889,.00018195,43.0026,322.4438,285.4628,74.6022,0,U,67323,999,3071,.38265151E-3,.10284E-3,0
STARLINK-36471,2026-002V,2026-07-15T16:02:59.974944,15.27586118,.00014924,43.0030,322.3345,274.0160,86.0521,0,U,67324,999,3065,.34801945E-3,.9328E-4,0
STARLINK-36473,2026-002W,2026-07-15T09:51:55.495872,15.27581568,.00014209,43.0021,323.8404,255.9632,104.1062,0,U,67325,999,3077,.30423131E-3,.8119E-4,0
STARLINK-36430,2026-002X,2026-07-15T15:37:05.721024,15.27589711,.0001465,43.0021,322.1963,271.3793,88.6890,0,U,67326,999,3081,.47653E-3,.12878E-3,0
STARLINK-36501,2026-002Y,2026-07-15T15:46:20.795232,15.27587596,.00012112,43.0009,322.2440,265.1510,94.9204,0,U,67327,999,3065,.43404732E-3,.11704E-3,0
STARLINK-36489,2026-002Z,2026-07-15T08:51:05.045760,15.27592897,.00003754,42.9957,324.3898,50.9122,309.1763,0,U,67328,999,3076,.43724678E-3,.11794E-3,0
STARLINK-36496,2026-002AA,2026-07-15T10:03:01.797120,15.27583590,.00019731,43.0038,323.8995,280.7628,79.3001,0,U,67329,999,3059,.44295741E-3,.11948E-3,0
STARLINK-36483,2026-002AB,2026-07-15T09:00:19.223136,15.27591635,.00012825,42.9998,324.4358,271.4978,88.5727,0,U,67330,999,3076,.28047055E-3,.7466E-4,0
STARLINK-36494,2026-002AC,2026-07-15T16:25:12.213696,15.27591148,.00014382,43.0032,322.4508,260.7969,99.2720,0,U,67331,999,3081,.34326102E-3,.9199E-4,0
STARLINK-36492,2026-002AD,2026-07-15T18:36:21.761568,15.27602756,.00024311,43.0026,322.2758,274.0770,85.9804,0,U,67332,999,3082,.54652614E-3,.14818E-3,0
STARLINK-36427,2026-002AE,2026-07-15T16:28:54.806880,15.27585116,.00011257,42.9998,322.4608,290.7079,69.3652,0,U,67333,999,3071,.54666147E-3,.14813E-3,0
STARLINK-35343,2026-003A,2026-07-16T02:39:09.023904,15.27594051,.0000882,42.9980,221.8661,268.5248,91.5502,0,U,67334,999,2846,.39138E-3,.10528E-3,0
STARLINK-36486,2026-003B,2026-07-16T03:41:51.196128,15.27597848,.0001224,42.9914,221.3186,206.6648,153.4141,0,U,67335,999,2847,.43662E-3,.11779E-3,0
STARLINK-36480,2026-003C,2026-07-15T03:17:54.213792,15.27591270,.00022951,43.0035,227.4698,300.2797,59.7827,0,U,67336,999,2831,.33265234E-3,.8906E-4,0
